ONEWEB-0379             
1 49305U 21090AC  25257.26311659 -.00000122  00000+0 -36386-3 0  9992
2 49305  87.9084 344.6429 0001779  96.1341 263.9992 13.14503762191316
ONEWEB-0380             
1 49306U 21090AD  25257.28781499  .00000024  00000+0  28201-4 0  9995
2 49306  87.9283 359.8379 0002011 100.8225 259.3135 13.19725184190039
ONEWEB-0381             
1 49307U 21090AE  25256.94906766  .00000002  00000+0 -26674-4 0  9993
2 49307  87.9272 329.5145 0002175  95.4865 264.6516 13.20772643193368
ONEWEB-0382             
1 49308U 21090AF  25257.16369234 -.00006645  00000+0 -16379-1 0  9990
2 49308  87.9274 329.4624 0002286  88.3023 271.8372 13.20803137193387
ONEWEB-0383             
1 49309U 21090AG  25256.95230442 -.00000059  00000+0 -19323-3 0  9992
2 49309  87.9094 344.6851 0001825  94.5405 265.5933 13.14504305191301
ONEWEB-0384             
1 49310U 21090AH  25257.15874197  .00000109  00000+0  23676-3 0  9998
2 49310  87.9293 329.4883 0002170  85.9480 274.1901 13.20789999193394
ONEWEB-0385             
1 49311U 21090AJ  25257.15581271  .00000056  00000+0  10652-3 0  9998
2 49311  87.9270 329.4756 0002004  95.4780 264.6582 13.20772689193368
ONEWEB-0386             
1 49312U 21090AK  25257.17317955 -.00000010  00000+0 -57131-4 0  9993
2 49312  87.9278 329.4479 0001996  90.8293 269.3069 13.20771630193385
